- id: gps-23953
  name: NAVSTAR 38 (USA 126)
  allegiance: friendly
  components:
    - kind: space_orbit
      data:
        line1: "1 23953U 96041A   26086.41227197 -.00000039  00000+0  00000+0 0  9998"
        line2: "2 23953  55.9536  49.4014 0061177 107.2331  60.7300  1.88695407213244"
        fov_half_angle_deg: 5.0
    - kind: symbol
      data:
        sidc_template:
          version: "10"
          context: reality
          standard_identity: friend
          symbol_set: space
          status: present
          hqtfd: not_applicable
          amplifier: unspecified
          entity: code_110700
          modifier_one: code_02
          modifier_two: code_00
